ORBCOMM FM37            
1 33064U 08031E   24328.91336639  .00004443  00000+0  63376-3 0  9999
2 33064  48.4389 238.4972 0005950 211.6178 195.9777 14.78246727883668
ORBCOMM FM40            
1 33065U 08031F   24329.12388546  .00005726  00000+0  77439-3 0  9998
2 33065  48.4408 224.6674 0007338 221.5626 250.0450 14.80070221884206
VESSELSAT 1             
1 37840U 11058C   24329.13214165  .00000511  00000+0  13441-3 0  9992
2 37840  19.9617 254.6064 0013822  91.1909 269.0079 14.11266787677533
ORBCOMM FM109           
1 40086U 14040A   24328.92829235  .00002254  00000+0  52674-3 0  9995
2 40086  47.0026 265.2304 0001541  81.7686 278.3374 14.57597038551237
ORBCOMM FM107           
1 40087U 14040B   24329.10266816  .00002183  00000+0  51196-3 0  9996
2 40087  47.0043 265.4377 0001041  39.9432 320.1530 14.57532115551255
ORBCOMM FM106           
1 40088U 14040C   24329.44063898  .00003771  00000+0  67631-3 0  9994
2 40088  47.0588 102.0986 0018091 199.3611 160.6594 14.68343305553583
ORBCOMM FM111           
1 40089U 14040D   24329.40031211  .00006523  00000+0  79037-3 0  9996
2 40089  47.0038 339.3053 0032417 294.4530  65.2985 14.84088832559780
ORBCOMM FM104           
1 40090U 14040E   24328.93875951  .00001936  00000+0  47335-3 0  9991
2 40090  47.0058 297.3977 0017162 345.6304  14.4090 14.55977985550700
